[{"OBJECT_NAME":"ZORKIY-2M-VPE","OBJECT_ID":"2025-313E","EPOCH":"2026-03-09T22:36:53.941536","MEAN_MOTION":15.22760121,"ECCENTRICITY":0.0009586,"INCLINATION":97.4008,"RA_OF_ASC_NODE":145.3388,"ARG_OF_PERICENTER":340.9586,"MEAN_ANOMALY":19.1291,"EPHEMERIS_TYPE":0,"CLASSIFICATION_TYPE":"U","NORAD_CAT_ID":67252,"ELEMENT_SET_NO":999,"REV_AT_EPOCH":1086,"BSTAR":0.00040752318,"MEAN_MOTION_DOT":9.461e-5,"MEAN_MOTION_DDOT":0},{"OBJECT_NAME":"DCS-1","OBJECT_ID":"2025-313R","EPOCH":"2026-03-09T22:34:45.868224","MEAN_MOTION":15.21562848,"ECCENTRICITY":0.00145796,"INCLINATION":97.4021,"RA_OF_ASC_NODE":145.2125,"ARG_OF_PERICENTER":357.8679,"MEAN_ANOMALY":2.2492,"EPHEMERIS_TYPE":0,"CLASSIFICATION_TYPE":"U","NORAD_CAT_ID":67263,"ELEMENT_SET_NO":999,"REV_AT_EPOCH":1085,"BSTAR":0.0005215367,"MEAN_MOTION_DOT":0.00011729,"MEAN_MOTION_DDOT":0}]
